ONEWEB-0504             
1 54122U 22138K   25090.88890938  .00000004  00000+0 -23465-4 0  9997
2 54122  87.9237  32.8662 0002245  78.2392 281.8992 13.19727812118496
ONEWEB-0505             
1 54123U 22138L   25090.88573790  .00000338  00000+0  81180-3 0  9998
2 54123  87.9230  32.8575 0002521  71.6856 288.4551 13.19733535119340
ONEWEB-0506             
1 54124U 22138M   25090.86047161  .00000125  00000+0  28078-3 0  9996
2 54124  87.9236  32.8598 0002066  76.3575 283.7787 13.19727878118460
ONEWEB-0507             
1 54125U 22138N   25090.88100556  .00000065  00000+0  12933-3 0  9993
2 54125  87.9244  32.9013 0002016  73.0374 287.0980 13.19724238118514
ONEWEB-0508             
1 54126U 22138P   25090.80203681  .00000067  00000+0  13564-3 0  9992
2 54126  87.9241  32.9022 0002065  67.7186 292.4166 13.19728085118483
ONEWEB-0509             
1 54127U 22138Q   25090.85257395 -.00000269  00000+0 -70512-3 0  9991
2 54127  87.9234  32.8597 0002046  76.8369 283.2992 13.19725677118462
ONEWEB-0510             
1 54128U 22138R   25090.78757979  .00000036  00000+0  57511-4 0  9992
2 54128  87.9336   2.4958 0001576  79.7907 280.3404 13.20769519120887
ONEWEB-0511             
1 54129U 22138S   25090.84941745  .00000142  00000+0  32317-3 0  9990
2 54129  87.9233  32.8655 0002185  85.5106 274.6276 13.19724086118493
